{
  "type": "FeatureCollection",
  "features": [
    {
      "type": "Feature",
      "properties": {
        "nameOfFacility": "שם 1",
        "unitOwningTheFacility": "יחידה 1",
        "locationOfFacility": "ירושלים",
        "areaInTheCountry": "צפון",
        "TypesOfFacilities": [
          {
            "typeOfFacility": "מטווחים",
            "specificTypeOfFacility": "מטווחי חוץ",
            "trainingOptions": ["סוג אימון 1", " סוג אימון 2"],
            "trainingFrame": "1",
            "imgArr": ["1", "1.1"],
            "comments": "Aaaaa"
          },
          {
            "typeOfFacility": "חדר ירי",
            "specificTypeOfFacility": "חדר ירי מבטון",
            "trainingOptions": ["2", "2.1"],
            "trainingFrame": "2",
            "imgArr": ["2", "2.12"],
            "comments": "Abbbbba"
          }
        ]
      },
      "geometry": {
        "coordinates": [35.17449481949572, 32.84208208398009],
        "type": "Point"
      }
    },
    {
      "type": "Feature",
      "properties": {
        "nameOfFacility": "שם 2",
        "unitOwningTheFacility": "יחידה 2",
        "locationOfFacility": "ירושלים",
        "areaInTheCountry": "מרכז",
        "TypesOfFacilities": [
          {
            "typeOfFacility": "מטווחים",
            "specificTypeOfFacility": "מטווחי חוץ",
            "trainingOptions": ["סוג אימון 1", " סוג אימון 2"],
            "trainingFrame": "1 חוליה",
            "imgArr": ["assets/img/img1.avif", "assets/img/img2.jpg", "assets/img/img3.jpg", "assets/img/img4.jpg", "assets/img/img5.webp", "assets/img/img6.jpg", "assets/img/img7.JPG"],
            "comments": "Aaaaa ssssss rrrrr ttryy jj;; bbbbb bbbbb dddd aaaa wwww eeee rrrr yyy uuu 55544 22122 ggg ]]]. mmmm aaaa AASSDD RRR 333 22221212 HHHUUHH eeerrrvvcc bbb pppoiuyr eeee eeee rrr ttttt yyy 66 y677 8888 99 00. ggg444 111aa aaadddggg gg5 pppp ll lgffj"
          },
          {
            "typeOfFacility": "חדר ירי",
            "specificTypeOfFacility": "חדר ירי מבטון",
            "trainingOptions": ["סוג אימון 1", " סוג אימון 2", "סוג אימון 3"],
            "trainingFrame": "2",
            "imgArr": ["assets/img/img1.avif", "assets/img/img2.jpg", "assets/img/img3.jpg"],
            "comments": "Abbbbba"
          },
          {
            "typeOfFacility": "לש''בית מכולות",
            "specificTypeOfFacility": "לש'?בית מכולות",
            "trainingOptions": ["סוג אימון 1", " סוג אימון 2", "סוג 333333", "אימממממון 5", "סוג אימון 6", "סוווווווווג 7", " xud thnui 8"],
            "trainingFrame": "2",
            "imgArr": ["assets/img/img7.JPG"],
            "comments": "Abbbbba vdsgaerg hjkl;;i;o bbttrr."
          }
        ]
      },
      "geometry": {
        "coordinates": [34.60450515447002, 31.578730148446937],
        "type": "Point"
      }
    },
    {
      "type": "Feature",
      "properties": {
        "nameOfFacility": "שם 32",
        "unitOwningTheFacility": "יחידה 32",
        "locationOfFacility": "ירושלים",
        "areaInTheCountry": "דרום",
        "TypesOfFacilities": [
          {
            "typeOfFacility": "מטווחים",
            "specificTypeOfFacility": "מטווחי חוץ",
            "trainingOptions": ["1", "1.1"],
            "trainingFrame": "1",
            "imgArr": ["1", "1.1"],
            "comments": "Aaaaa"
          },
          {
            "typeOfFacility": "לש''בית עץ",
            "specificTypeOfFacility": "לשב''ית עץ",
            "trainingOptions": ["2", "2.1"],
            "trainingFrame": "2",
            "imgArr": ["2", "2.12"],
            "comments": "Abbbbba"
          }
        ]
      },
      "geometry": {
        "coordinates": [34.89360150384468, 30.521936582057236],
        "type": "Point"
      }
    }
  ]
}
